NORAD_CAT_ID,OBJECT_NAME,OBJECT_TYPE,EPOCH,MEAN_MOTION,ECCENTRICITY,INCLINATION,RA_OF_ASC_NODE,ARG_OF_PERICENTER,MEAN_ANOMALY,BSTAR,MEAN_MOTION_DOT,MEAN_MOTION_DDOT,TLE_LINE0,TLE_LINE1,TLE_LINE2,SEMIMAJOR_AXIS,PERIOD,APOGEE,PERIGEE,DECAYED
49738.0,STARLINK-3143,PAYLOAD,2023-02-15 13:06:48,15.08885232,0.0001181,53.2151,128.6584,109.6223,250.4897,0.0031931,0.00050961,0.0,0 STARLINK-3143,1 49738U 21115Q   23046.54639033  .00050961  00000-0  31931-2 0  9999,2 49738  53.2151 128.6584 0001181 109.6223 250.4897 15.08885232 67840,6917.742,95.435,540.424,538.79,0.0
49738.0,STARLINK-3143,PAYLOAD,2023-02-15 14:42:11,15.0889287,0.0001223,53.215,128.361,107.9302,252.1824,0.0034373,0.00054923,0.0,0 STARLINK-3143,1 49738U 21115Q   23046.61262823  .00054923  00000-0  34373-2 0  9991,2 49738  53.2150 128.3610 0001223 107.9302 252.1824 15.08892870 66745,6917.719,95.434,540.43,538.738,0.0
49738.0,STARLINK-3143,PAYLOAD,2023-02-16 06:36:02,15.08881015,0.0001197,53.2155,125.3877,97.261,262.8518,0.0024695,0.00039278,0.0,0 STARLINK-3143,1 49738U 21115Q   23047.27502393  .00039278  00000-0  24695-2 0  9995,2 49738  53.2155 125.3877 0001197  97.2610 262.8518 15.08881015 67956,6917.755,95.435,540.448,538.792,0.0
49738.0,STARLINK-3143,PAYLOAD,2023-02-16 11:22:10,15.08900897,0.0001218,53.2156,124.4954,87.2215,272.8917,0.0040935,0.00065576,0.0,0 STARLINK-3143,1 49738U 21115Q   23047.47373826  .00065576  00000-0  40935-2 0  9999,2 49738  53.2156 124.4954 0001218  87.2215 272.8917 15.08900897 66871,6917.694,95.434,540.402,538.717,0.0
49738.0,STARLINK-3143,PAYLOAD,2023-02-17 00:05:17,15.08822734,0.000103,53.2168,122.118,107.5786,252.5318,0.003855,0.00061571,0.0,0 STARLINK-3143,1 49738U 21115Q   23048.00367124  .00061571  00000-0  38550-2 0  9994,2 49738  53.2168 122.1180 0001030 107.5786 252.5318 15.08822734 68067,6917.933,95.439,540.511,539.086,0.0
49738.0,STARLINK-3143,PAYLOAD,2023-02-17 12:48:23,15.0883142,0.00013,53.2165,119.7377,102.6637,257.45,0.0025508,0.00040532,0.0,0 STARLINK-3143,1 49738U 21115Q   23048.53360155  .00040532  00000-0  25508-2 0  9992,2 49738  53.2165 119.7377 0001300 102.6637 257.4500 15.08831420 68143,6917.907,95.438,540.671,538.872,0.0
49738.0,STARLINK-3143,PAYLOAD,2023-02-18 07:53:01,15.08833947,0.000218,53.2158,116.165,126.6939,233.4253,0.001054,0.00016524,0.0,0 STARLINK-3143,1 49738U 21115Q   23049.32849157  .00016524  00000-0  10540-2 0  9998,2 49738  53.2158 116.1650 0002180 126.6939 233.4253 15.08833947 68266,6917.899,95.438,541.272,538.256,0.0
49738.0,STARLINK-3143,PAYLOAD,2023-02-18 14:14:34,15.08840165,0.0001275,53.2165,114.9808,110.5241,249.5888,0.0013455,0.00021191,0.0,0 STARLINK-3143,1 49738U 21115Q   23049.59345437  .00021191  00000-0  13455-2 0  9993,2 49738  53.2165 114.9808 0001275 110.5241 249.5888 15.08840165 67190,6917.88,95.438,540.627,538.863,0.0
49738.0,STARLINK-3143,PAYLOAD,2023-02-18 23:46:53,15.08845903,0.000155,53.2164,113.195,115.2716,244.8437,0.0008154,0.00012715,0.0,0 STARLINK-3143,1 49738U 21115Q   23049.99089328  .00012715  00000-0  81540-3 0  9994,2 49738  53.2164 113.1950 0001550 115.2716 244.8437 15.08845903 68366,6917.862,95.437,540.8,538.655,0.0
49738.0,STARLINK-3143,PAYLOAD,2023-02-19 12:29:57,15.08866869,0.0001349,53.2168,110.8175,99.3387,260.7758,0.00099936,0.00015664,0.0,0 STARLINK-3143,1 49738U 21115Q   23050.52080667  .00015664  00000-0  99936-3 0  9996,2 49738  53.2168 110.8175 0001349  99.3387 260.7758 15.08866869 67338,6917.798,95.436,540.596,538.73,0.0
49738.0,STARLINK-3143,PAYLOAD,2023-02-20 07:34:35,15.08846446,0.0001848,53.2181,107.2529,110.9498,249.1692,8.2749e-07,-2.75e-06,0.0,0 STARLINK-3143,1 49738U 21115Q   23051.31568452 -.00000275  00000-0  82749-6 0  9997,2 49738  53.2181 107.2529 0001848 110.9498 249.1692 15.08846446 68566,6917.861,95.437,541.004,538.447,0.0
49738.0,STARLINK-3143,PAYLOAD,2023-02-20 12:20:44,15.08848973,0.0001368,53.2163,106.3574,90.0156,270.0992,0.00016911,2.405e-05,0.0,0 STARLINK-3143,1 49738U 21115Q   23051.51440509  .00002405  00000-0  16911-3 0  9992,2 49738  53.2163 106.3574 0001368  90.0156 270.0992 15.08848973 67485,6917.853,95.437,540.664,538.772,0.0
49738.0,STARLINK-3143,PAYLOAD,2023-02-21 10:36:08,15.08847157,0.0001463,53.2164,102.1942,82.1925,277.9233,7.201e-05,8.58e-06,0.0,0 STARLINK-3143,1 49738U 21115Q   23052.44176275  .00000858  00000-0  72010-4 0  9994,2 49738  53.2164 102.1942 0001463  82.1925 277.9233 15.08847157 68737,6917.859,95.437,540.736,538.711,0.0
49738.0,STARLINK-3143,PAYLOAD,2023-02-21 20:08:27,15.08846496,0.0001493,53.2166,100.4095,86.138,273.9783,9.8123e-05,1.274e-05,0.0,0 STARLINK-3143,1 49738U 21115Q   23052.83920255  .00001274  00000-0  98123-4 0  9998,2 49738  53.2166 100.4095 0001493  86.1380 273.9783 15.08846496 67685,6917.861,95.437,540.758,538.693,0.0
49738.0,STARLINK-3143,PAYLOAD,2023-02-22 02:29:59,15.08838141,0.0001408,53.2163,99.2197,82.9456,277.1696,8.5663e-05,1.076e-05,0.0,0 STARLINK-3143,1 49738U 21115Q   23053.10416632  .00001076  00000-0  85663-4 0  9993,2 49738  53.2163  99.2197 0001408  82.9456 277.1696 15.08838141 68839,6917.886,95.438,540.725,538.777,0.0
49738.0,STARLINK-3143,PAYLOAD,2023-02-22 10:26:55,15.08847463,0.0001362,53.217,97.7327,90.7263,269.3885,0.00012287,1.668e-05,0.0,0 STARLINK-3143,1 49738U 21115Q   23053.43536132  .00001668  00000-0  12287-3 0  9995,2 49738  53.2170  97.7327 0001362  90.7263 269.3885 15.08847463 67779,6917.858,95.437,540.665,538.78,0.0
49738.0,STARLINK-3143,PAYLOAD,2023-02-22 21:34:37,15.08842026,0.0001288,53.2169,95.6512,84.0633,276.0506,5.3351e-06,-2.03e-06,0.0,0 STARLINK-3143,1 49738U 21115Q   23053.89904583 -.00000203  00000-0  53351-5 0  9998,2 49738  53.2169  95.6512 0001288  84.0633 276.0506 15.08842026 67847,6917.874,95.437,540.63,538.848,0.0
49738.0,STARLINK-3143,PAYLOAD,2023-02-23 05:31:33,15.08832411,0.0001374,53.2168,94.1639,84.5465,275.5684,-1.8346e-05,-5.8e-06,0.0,0 STARLINK-3143,1 49738U 21115Q   23054.23025368 -.00000580  00000-0 -18346-4 0  9995,2 49738  53.2168  94.1639 0001374  84.5465 275.5684 15.08832411 69002,6917.904,95.438,540.719,538.818,0.0
49738.0,STARLINK-3143,PAYLOAD,2023-02-23 10:17:42,15.08840139,0.0001193,53.2168,93.2702,100.1949,259.9177,-1.9981e-05,-6.06e-06,0.0,0 STARLINK-3143,1 49738U 21115Q   23054.42896799 -.00000606  00000-0 -19981-4 0  9995,2 49738  53.2168  93.2702 0001193 100.1949 259.9177 15.08840139 69036,6917.88,95.438,540.57,538.92,0.0
49738.0,STARLINK-3143,PAYLOAD,2023-02-23 21:25:24,15.08838964,0.0001193,53.2166,91.1896,88.868,271.2449,1.8106e-05,0.0,0.0,0 STARLINK-3143,1 49738U 21115Q   23054.89264866  .00000000  00000-0  18106-4 0  9994,2 49738  53.2166  91.1896 0001193  88.8680 271.2449 15.08838964 67994,6917.884,95.438,540.574,538.923,0.0
49738.0,STARLINK-3143,PAYLOAD,2023-02-24 10:08:29,15.08844402,0.0001303,53.2165,88.8104,97.003,263.1111,0.00011687,1.573e-05,0.0,0 STARLINK-3143,1 49738U 21115Q   23055.42256197  .00001573  00000-0  11687-3 0  9994,2 49738  53.2165  88.8104 0001303  97.0030 263.1111 15.08844402 68072,6917.867,95.437,540.633,538.831,0.0
49738.0,STARLINK-3143,PAYLOAD,2023-02-24 19:40:48,15.08843683,0.0001165,53.2165,87.0263,105.8534,254.2587,-1.1304e-06,-3.06e-06,0.0,0 STARLINK-3143,1 49738U 21115Q   23055.82000405 -.00000306  00000-0 -11304-5 0  9990,2 49738  53.2165  87.0263 0001165 105.8534 254.2587 15.08843683 68137,6917.869,95.437,540.54,538.928,0.0
49738.0,STARLINK-3143,PAYLOAD,2023-02-24 22:51:35,15.08830518,0.000127,53.2164,86.4318,98.4921,261.6216,9.9966e-05,1.303e-05,0.0,0 STARLINK-3143,1 49738U 21115Q   23055.95249009  .00001303  00000-0  99966-4 0  9994,2 49738  53.2164  86.4318 0001270  98.4921 261.6216 15.08830518 69263,6917.909,95.438,540.653,538.896,0.0
49738.0,STARLINK-3143,PAYLOAD,2023-02-25 05:13:08,15.08827009,0.0001184,53.2166,85.2422,101.8448,258.2677,6.6968e-05,7.78e-06,0.0,0 STARLINK-3143,1 49738U 21115Q   23056.21745565  .00000778  00000-0  66968-4 0  9993,2 49738  53.2166  85.2422 0001184 101.8448 258.2677 15.08827009 68190,6917.92,95.438,540.604,538.966,0.0
49738.0,STARLINK-3143,PAYLOAD,2023-02-26 03:28:31,15.08849848,0.0001211,53.2164,81.0782,102.5727,257.5401,5.1999e-06,-2.05e-06,0.0,0 STARLINK-3143,1 49738U 21115Q   23057.14480457 -.00000205  00000-0  51999-5 0  9997,2 49738  53.2164  81.0782 0001211 102.5727 257.5401 15.08849848 69441,6917.85,95.437,540.553,538.878,0.0
49738.0,STARLINK-3143,PAYLOAD,2023-02-26 08:14:40,15.08851091,0.0001186,53.2168,80.1871,108.5664,251.5457,0.00011961,1.617e-05,0.0,0 STARLINK-3143,1 49738U 21115Q   23057.34352021  .00001617  00000-0  11961-3 0  9994,2 49738  53.2168  80.1871 0001186 108.5664 251.5457 15.08851091 68369,6917.846,95.437,540.532,538.891,0.0
49738.0,STARLINK-3143,PAYLOAD,2023-02-27 03:19:19,15.08831819,0.0001236,53.2168,76.6185,115.6105,244.5015,8.9461e-05,1.136e-05,0.0,0 STARLINK-3143,1 49738U 21115Q   23058.13841445  .00001136  00000-0  89461-4 0  9992,2 49738  53.2168  76.6185 0001236 115.6105 244.5015 15.08831819 69596,6917.905,95.438,540.625,538.915,0.0
49738.0,STARLINK-3143,PAYLOAD,2023-02-27 04:54:42,15.0883306,0.000116,53.2171,76.3216,111.8907,248.2208,9.1125e-05,1.162e-05,0.0,0 STARLINK-3143,1 49738U 21115Q   23058.20465471  .00001162  00000-0  91125-4 0  9990,2 49738  53.2171  76.3216 0001160 111.8907 248.2208 15.08833060 68499,6917.902,95.438,540.569,538.964,0.0
49738.0,STARLINK-3143,PAYLOAD,2023-02-27 17:37:46,15.08853568,0.0001026,53.2172,73.9443,100.6695,259.4412,9.4409e-05,1.216e-05,0.0,0 STARLINK-3143,1 49738U 21115Q   23058.73456400  .00001216  00000-0  94409-4 0  9998,2 49738  53.2172  73.9443 0001026 100.6695 259.4412 15.08853568 69684,6917.839,95.437,540.414,538.994,0.0
49738.0,STARLINK-3143,PAYLOAD,2023-02-28 06:20:51,15.08850559,0.0001047,53.2172,71.5643,94.3412,265.77,8.9415e-05,1.136e-05,0.0,0 STARLINK-3143,1 49738U 21115Q   23059.26448343  .00001136  00000-0  89415-4 0  9996,2 49738  53.2172  71.5643 0001047  94.3412 265.7700 15.08850559 68652,6917.848,95.437,540.437,538.989,0.0
